{
  "type": "FeatureCollection",
  "features": [
    {
      "type": "Feature",
      "properties": {
        "cell_id": 1
      },
      "geometry": {
        "type": "Polygon",
        "coordinates": [
          [
            [ 1585.4, 5889.6 ],
            [ 1585.4, 5882.3 ],
            [ 1570.7, 5882.4 ],
            [ 1570.7, 5875 ],
            [ 1563.4, 5875.1 ],
            [ 1563.4, 5860.4 ],
            [ 1556.1, 5860.4 ],
            [ 1556.1, 5831.2 ],
            [ 1563.4, 5831.2 ],
            [ 1563.4, 5816.6 ],
            [ 1570.7, 5816.6 ],
            [ 1570.7, 5809.3 ],
            [ 1585.3, 5809.3 ],
            [ 1585.3, 5802 ],
            [ 1614.5, 5801.9 ],
            [ 1614.5, 5809.2 ],
            [ 1629.1, 5809.2 ],
            [ 1629.1, 5816.5 ],
            [ 1636.4, 5816.5 ],
            [ 1636.5, 5831.1 ],
            [ 1643.8, 5831.1 ],
            [ 1643.8, 5853.1 ],
            [ 1636.5, 5853.1 ],
            [ 1636.5, 5867.7 ],
            [ 1629.2, 5867.7 ],
            [ 1629.2, 5875 ],
            [ 1621.9, 5875 ],
            [ 1621.9, 5882.3 ],
            [ 1607.3, 5882.3 ],
            [ 1607.3, 5889.6 ],
            [ 1585.4, 5889.6 ]
          ]
        ]
      }
    },
    {
      "type": "Feature",
      "properties": {
        "cell_id": 3
      },
      "geometry": {
        "type": "Polygon",
        "coordinates": [
          [
            [ 1206.6, 7154.2 ],
            [ 1206.6, 7146.9 ],
            [ 1192, 7146.9 ],
            [ 1192, 7139.6 ],
            [ 1184.7, 7139.6 ],
            [ 1184.7, 7125 ],
            [ 1177.3, 7125 ],
            [ 1177.3, 7103.1 ],
            [ 1184.6, 7103.1 ],
            [ 1184.6, 7088.5 ],
            [ 1191.9, 7088.5 ],
            [ 1191.9, 7081.2 ],
            [ 1199.2, 7081.1 ],
            [ 1199.2, 7073.8 ],
            [ 1213.8, 7073.8 ],
            [ 1213.8, 7066.5 ],
            [ 1235.7, 7066.5 ],
            [ 1235.8, 7073.8 ],
            [ 1250.4, 7073.8 ],
            [ 1250.4, 7081.1 ],
            [ 1257.7, 7081.1 ],
            [ 1257.7, 7088.4 ],
            [ 1265, 7088.4 ],
            [ 1265, 7103 ],
            [ 1272.3, 7103 ],
            [ 1272.3, 7117.6 ],
            [ 1265, 7117.6 ],
            [ 1265, 7132.2 ],
            [ 1257.7, 7132.3 ],
            [ 1257.7, 7139.6 ],
            [ 1250.4, 7139.6 ],
            [ 1250.4, 7146.9 ],
            [ 1235.8, 7146.9 ],
            [ 1235.8, 7154.2 ],
            [ 1206.6, 7154.2 ]
          ]
        ]
      }
    }
  ]
}
