{
"type": "FeatureCollection",
"name": "nucleus_segmentations",
"features": [
{ "type": "Feature", "properties": { "cell_id": 1 }, "geometry": { "type": "Polygon", "coordinates": [ [ [ 1585.3, 5860.399999999999636 ], [ 1585.3, 5831.199999999999818 ], [ 1614.5, 5831.199999999999818 ], [ 1614.6, 5853.100000000000364 ], [ 1607.2, 5853.100000000000364 ], [ 1607.3, 5860.399999999999636 ], [ 1585.3, 5860.399999999999636 ] ] ] } },
{ "type": "Feature", "properties": { "cell_id": 3 }, "geometry": { "type": "Polygon", "coordinates": [ [ [ 1206.6, 7125.0 ], [ 1206.6, 7103.100000000000364 ], [ 1213.9, 7103.100000000000364 ], [ 1213.9, 7095.800000000000182 ], [ 1235.8, 7095.699999999999818 ], [ 1235.8, 7103.0 ], [ 1243.1, 7103.0 ], [ 1243.1, 7117.600000000000364 ], [ 1235.8, 7117.699999999999818 ], [ 1235.8, 7125.0 ], [ 1206.6, 7125.0 ] ] ] } }
]
}
